NUSAT-49 (KLARA DAN VO*)
1 60500U 24149AJ  26068.79810190  .00012912  00000+0  43568-3 0  9991
2 60500  97.3807 150.7380 0001132 286.7761  73.3356 15.30828857 86935
STARLINK-34823          
1 65355U 25190E   26068.54039069  .00027737  00000+0  94540-3 0  9999
2 65355  53.1597 168.7809 0001152  86.0047 274.1086 15.30190871 29733
